{
    "links": {
        "self": "http://www.neowsapp.com/rest/v1/neo/3781877?api_key=iIulBulltgU6a56xZRHN4H3l9WmuAYTsLGpBGhQ2"
    },
    "id": "3781877",
    "neo_reference_id": "3781877",
    "name": "(2017 SS14)",
    "designation": "2017 SS14",
    "nasa_jpl_url": "http://ssd.jpl.nasa.gov/sbdb.cgi?sstr=3781877",
    "absolute_magnitude_h": 26.7,
    "estimated_diameter": {
        "kilometers": {
            "estimated_diameter_min": 0.0121494041,
            "estimated_diameter_max": 0.0271668934
        },
        "meters": {
            "estimated_diameter_min": 12.14940408,
            "estimated_diameter_max": 27.1668934089
        },
        "miles": {
            "estimated_diameter_min": 0.0075492874,
            "estimated_diameter_max": 0.0168807197
        },
        "feet": {
            "estimated_diameter_min": 39.8602508817,
            "estimated_diameter_max": 89.1302305717
        }
    },
    "is_potentially_hazardous_asteroid": false,
    "close_approach_data": [
        {
            "close_approach_date": "2017-09-17",
            "close_approach_date_full": "2017-Sep-17 15:27",
            "epoch_date_close_approach": 1505662020000,
            "relative_velocity": {
                "kilometers_per_second": "9.3493323122",
                "kilometers_per_hour": "33657.5963238732",
                "miles_per_hour": "20913.5214491311"
            },
            "miss_distance": {
                "astronomical": "0.030484561",
                "lunar": "11.858494229",
                "kilometers": "4560425.39348507",
                "miles": "2833716.938311166"
            },
            "orbiting_body": "Earth"
        },
        {
            "close_approach_date": "2027-08-30",
            "close_approach_date_full": "2027-Aug-30 00:45",
            "epoch_date_close_approach": 1819586700000,
            "relative_velocity": {
                "kilometers_per_second": "3.4279688134",
                "kilometers_per_hour": "12340.6877282594",
                "miles_per_hour": "7668.0234387065"
            },
            "miss_distance": {
                "astronomical": "1.3564894752",
                "lunar": "527.6744058528",
                "kilometers": "202927936.167337824",
                "miles": "126093572.4977330112"
            },
            "orbiting_body": "Juptr"
        }
    ],
    "orbital_data": {
        "orbit_id": "1",
        "orbit_determination_date": "2017-09-27 09:42:09",
        "first_observation_date": "2017-09-24",
        "last_observation_date": "2017-09-27",
        "data_arc_in_days": 3,
        "observations_used": 22,
        "orbit_uncertainty": "8",
        "minimum_orbit_intersection": ".012252",
        "jupiter_tisserand_invariant": "3.174",
        "epoch_osculation": "2458021.5",
        "eccentricity": ".5994951849585929",
        "semi_major_axis": "2.521432651231501",
        "inclination": "4.67622594543907",
        "ascending_node_longitude": "352.0932608600733",
        "orbital_period": "1462.411136076542",
        "perihelion_distance": "1.009845917620837",
        "perihelion_argument": "343.5817751845633",
        "aphelion_distance": "4.033019384842165",
        "perihelion_time": "2457999.362650675473",
        "mean_anomaly": "5.449524802040761",
        "mean_motion": ".2461688037782816",
        "equinox": "J2000",
        "orbit_class": {
            "orbit_class_type": "APO",
            "orbit_class_description": "Near-Earth asteroid orbits which cross the Earth’s orbit similar to that of 1862 Apollo",
            "orbit_class_range": "a (semi-major axis) > 1.0 AU; q (perihelion) < 1.017 AU"
        }
    },
    "is_sentry_object": false
}